IRIDIUM 39              
1 25042U 97069D   25189.53325659  .00000402  00000+0  10012-3 0  9999
2 25042  86.3922 201.9830 0015932 231.1004 128.8780 14.49236905452052
IRIDIUM 38              
1 25043U 97069E   25189.52969802  .00000291  00000+0  89599-4 0  9996
2 25043  86.3951 224.1780 0003645  62.9131 297.2438 14.38129947449024
IRIDIUM 42              
1 25077U 97077A   25189.56211099  .00000265  00000+0  83774-4 0  9994
2 25077  86.3953 230.3598 0002901  81.2123 278.9402 14.36364090444264
IRIDIUM 44              
1 25078U 97077B   25189.52835325  .00000270  00000+0  78905-4 0  9991
2 25078  86.3961 212.2467 0001752  37.6426 322.4895 14.40253629446771
IRIDIUM 45              
1 25104U 97082A   25189.54632402  .00009002  00000+0  31974-3 0  9996
2 25104  86.3568  37.5142 0113127 251.1984 107.6963 15.22876215455293
IRIDIUM 24              
1 25105U 97082B   25189.40461136  .00000356  00000+0  10207-3 0  9995
2 25105  86.3886  71.3004 0012072  18.4176 341.7459 14.42114363446273
IRIDIUM 51              
1 25262U 98018A   25189.53574669  .00026171  00000+0  55882-3 0  9990
2 25262  86.3813  45.2518 0085200 166.4191 193.9386 15.40820302450313
IRIDIUM 57              
1 25273U 98019B   25189.56584994  .00000241  00000+0  76426-4 0  9996
2 25273  86.3987 136.3081 0002314  84.1030 276.0431 14.35904247427858
